0 MOLNIYA 1-40
1 10925U 78055A   13281.10464796  .00000069  00000-0  00000+0 0  9820
2 10925 062.6978 141.1144 7090261 260.0445 347.6970 02.00499562259020
0 MOLNIYA 1-40
1 10925U 78055A   13284.09714727  .00000068  00000-0  00000+0 0  9833
2 10925 062.6975 140.7321 7091633 260.0505 347.7165 02.00498677259089
0 MOLNIYA 1-40
1 10925U 78055A   13287.12677172  .00000094  00000-0  00000+0 0  9842
2 10925 062.6971 140.3439 7092953 260.0569 014.5223 02.00498084259140
0 MOLNIYA 1-40
1 10925U 78055A   13292.07754455  .00000169  00000-0  00000+0 0  9856
2 10925 062.6963 139.7098 7094987 260.0658 348.0143 02.00497584259243
0 MOLNIYA 1-40
1 10925U 78055A   13295.06986132  .00000183  00000-0  00000+0 0  9864
2 10925 062.6962 139.3267 7096174 260.0703 347.8817 02.00497484259308
